[{"OBJECT_NAME":"STARLINK-3096","OBJECT_ID":"2021-082B","EPOCH":"2026-03-10T00:00:02.999808","MEAN_MOTION":15.33446833,"ECCENTRICITY":0.00034236,"INCLINATION":69.9998,"RA_OF_ASC_NODE":252.2721,"ARG_OF_PERICENTER":279.9926,"MEAN_ANOMALY":116.5277,"EPHEMERIS_TYPE":0,"CLASSIFICATION_TYPE":"U","NORAD_CAT_ID":49131,"ELEMENT_SET_NO":999,"REV_AT_EPOCH":571,"BSTAR":0.0038781265,"MEAN_MOTION_DOT":0.00127742,"MEAN_MOTION_DDOT":0},{"OBJECT_NAME":"TRANSPORTER-1 OBJECT M","OBJECT_ID":"2021-006M","EPOCH":"2026-03-09T22:05:37.843296","MEAN_MOTION":15.3227845,"ECCENTRICITY":0.00102759,"INCLINATION":97.2377,"RA_OF_ASC_NODE":116.7915,"ARG_OF_PERICENTER":187.5492,"MEAN_ANOMALY":172.5597,"EPHEMERIS_TYPE":0,"CLASSIFICATION_TYPE":"U","NORAD_CAT_ID":47424,"ELEMENT_SET_NO":999,"REV_AT_EPOCH":28439,"BSTAR":0.00023985652,"MEAN_MOTION_DOT":7.411e-5,"MEAN_MOTION_DDOT":0}]
